CCSDS_OMM_VERS = 2.0
CREATION_DATE  = 
ORIGINATOR     = 

OBJECT_NAME    = SL-16 R/B
OBJECT_ID      = 1998-043G
CENTER_NAME    = EARTH
REF_FRAME      = TEME
TIME_SYSTEM    = UTC
MEAN_ELEMENT_THEORY = SGP/SGP4

EPOCH          = 2026-03-02T20:32:02.779008
MEAN_MOTION    = 14.26047932
ECCENTRICITY   = .00105506
INCLINATION    = 98.8243
RA_OF_ASC_NODE = 15.1711
ARG_OF_PERICENTER = 39.2642
MEAN_ANOMALY   = 320.9300

EPHEMERIS_TYPE = 0
CLASSIFICATION_TYPE = U
NORAD_CAT_ID   = 25400
ELEMENT_SET_NO = 999
REV_AT_EPOCH   = 43801
BSTAR          = .51498448E-4
MEAN_MOTION_DOT = .78E-6
MEAN_MOTION_DDOT = 0

CCSDS_OMM_VERS = 2.0
CREATION_DATE  = 
ORIGINATOR     = 

OBJECT_NAME    = SL-16 R/B
OBJECT_ID      = 1998-045B
CENTER_NAME    = EARTH
REF_FRAME      = TEME
TIME_SYSTEM    = UTC
MEAN_ELEMENT_THEORY = SGP/SGP4

EPOCH          = 2026-03-02T19:01:03.213984
MEAN_MOTION    = 14.16189648
ECCENTRICITY   = .00063447
INCLINATION    = 71.0112
RA_OF_ASC_NODE = 196.0774
ARG_OF_PERICENTER = 18.8432
MEAN_ANOMALY   = 341.2924

EPHEMERIS_TYPE = 0
CLASSIFICATION_TYPE = U
NORAD_CAT_ID   = 25407
ELEMENT_SET_NO = 999
REV_AT_EPOCH   = 42612
BSTAR          = -.96011898E-4
MEAN_MOTION_DOT = -.238E-5
MEAN_MOTION_DDOT = 0

CCSDS_OMM_VERS = 2.0
CREATION_DATE  = 
ORIGINATOR     = 

OBJECT_NAME    = ISS (ZARYA)
OBJECT_ID      = 1998-067A
CENTER_NAME    = EARTH
REF_FRAME      = TEME
TIME_SYSTEM    = UTC
MEAN_ELEMENT_THEORY = SGP/SGP4

EPOCH          = 2026-03-02T22:19:59.516544
MEAN_MOTION    = 15.48408287
ECCENTRICITY   = .00082151
INCLINATION    = 51.6319
RA_OF_ASC_NODE = 105.7724
ARG_OF_PERICENTER = 150.8374
MEAN_ANOMALY   = 209.3075

EPHEMERIS_TYPE = 0
CLASSIFICATION_TYPE = U
NORAD_CAT_ID   = 25544
ELEMENT_SET_NO = 999
REV_AT_EPOCH   = 55528
BSTAR          = .18074912E-3
MEAN_MOTION_DOT = .9325E-4
MEAN_MOTION_DDOT = 0

CCSDS_OMM_VERS = 2.0
CREATION_DATE  = 
ORIGINATOR     = 

OBJECT_NAME    = CZ-4B R/B
OBJECT_ID      = 1999-025C
CENTER_NAME    = EARTH
REF_FRAME      = TEME
TIME_SYSTEM    = UTC
MEAN_ELEMENT_THEORY = SGP/SGP4

EPOCH          = 2026-03-02T23:09:45.897984
MEAN_MOTION    = 14.18263744
ECCENTRICITY   = .00371289
INCLINATION    = 98.6641
RA_OF_ASC_NODE = 106.4057
ARG_OF_PERICENTER = 6.0276
MEAN_ANOMALY   = 64.1457

EPHEMERIS_TYPE = 0
CLASSIFICATION_TYPE = U
NORAD_CAT_ID   = 25732
ELEMENT_SET_NO = 999
REV_AT_EPOCH   = 38721
BSTAR          = .55380178E-4
MEAN_MOTION_DOT = .72E-6
MEAN_MOTION_DDOT = 0

CCSDS_OMM_VERS = 2.0
CREATION_DATE  = 
ORIGINATOR     = 

OBJECT_NAME    = OKEAN-O
OBJECT_ID      = 1999-039A
CENTER_NAME    = EARTH
REF_FRAME      = TEME
TIME_SYSTEM    = UTC
MEAN_ELEMENT_THEORY = SGP/SGP4

EPOCH          = 2026-03-02T18:10:41.086272
MEAN_MOTION    = 14.80322247
ECCENTRICITY   = .000147
INCLINATION    = 97.9457
RA_OF_ASC_NODE = 121.7189
ARG_OF_PERICENTER = 71.5784
MEAN_ANOMALY   = 288.5588

EPHEMERIS_TYPE = 0
CLASSIFICATION_TYPE = U
NORAD_CAT_ID   = 25860
ELEMENT_SET_NO = 999
REV_AT_EPOCH   = 43336
BSTAR          = .11460294E-3
MEAN_MOTION_DOT = .821E-5
MEAN_MOTION_DDOT = 0

CCSDS_OMM_VERS = 2.0
CREATION_DATE  = 
ORIGINATOR     = 

OBJECT_NAME    = SL-16 R/B
OBJECT_ID      = 1999-039B
CENTER_NAME    = EARTH
REF_FRAME      = TEME
TIME_SYSTEM    = UTC
MEAN_ELEMENT_THEORY = SGP/SGP4

EPOCH          = 2026-03-02T17:51:05.910624
MEAN_MOTION    = 14.81720143
ECCENTRICITY   = .00134412
INCLINATION    = 97.9981
RA_OF_ASC_NODE = 120.8504
ARG_OF_PERICENTER = 281.0263
MEAN_ANOMALY   = 78.9437

EPHEMERIS_TYPE = 0
CLASSIFICATION_TYPE = U
NORAD_CAT_ID   = 25861
ELEMENT_SET_NO = 999
REV_AT_EPOCH   = 43583
BSTAR          = .99659086E-4
MEAN_MOTION_DOT = .732E-5
MEAN_MOTION_DDOT = 0

CCSDS_OMM_VERS = 2.0
CREATION_DATE  = 
ORIGINATOR     = 

OBJECT_NAME    = DELTA 2 R/B
OBJECT_ID      = 1999-041E
CENTER_NAME    = EARTH
REF_FRAME      = TEME
TIME_SYSTEM    = UTC
MEAN_ELEMENT_THEORY = SGP/SGP4

EPOCH          = 2026-03-02T22:17:30.369408
MEAN_MOTION    = 14.11812753
ECCENTRICITY   = .05023546
INCLINATION    = 51.7651
RA_OF_ASC_NODE = 328.2833
ARG_OF_PERICENTER = 328.4737
MEAN_ANOMALY   = 28.6972

EPHEMERIS_TYPE = 0
CLASSIFICATION_TYPE = U
NORAD_CAT_ID   = 25876
ELEMENT_SET_NO = 999
REV_AT_EPOCH   = 36207
BSTAR          = .31260384E-3
MEAN_MOTION_DOT = .1709E-4
MEAN_MOTION_DDOT = 0

CCSDS_OMM_VERS = 2.0
CREATION_DATE  = 
ORIGINATOR     = 

OBJECT_NAME    = HELIOS 1B
OBJECT_ID      = 1999-064A
CENTER_NAME    = EARTH
REF_FRAME      = TEME
TIME_SYSTEM    = UTC
MEAN_ELEMENT_THEORY = SGP/SGP4

EPOCH          = 2026-03-02T17:15:08.823168
MEAN_MOTION    = 14.87662698
ECCENTRICITY   = .00025092
INCLINATION    = 98.1705
RA_OF_ASC_NODE = 323.7571
ARG_OF_PERICENTER = 84.3567
MEAN_ANOMALY   = 275.7935

EPHEMERIS_TYPE = 0
CLASSIFICATION_TYPE = U
NORAD_CAT_ID   = 25977
ELEMENT_SET_NO = 999
REV_AT_EPOCH   = 68422
BSTAR          = .24945955E-3
MEAN_MOTION_DOT = .2212E-4
MEAN_MOTION_DDOT = 0

CCSDS_OMM_VERS = 2.0
CREATION_DATE  = 
ORIGINATOR     = 

OBJECT_NAME    = TERRA
OBJECT_ID      = 1999-068A
CENTER_NAME    = EARTH
REF_FRAME      = TEME
TIME_SYSTEM    = UTC
MEAN_ELEMENT_THEORY = SGP/SGP4

EPOCH          = 2026-03-02T22:21:59.512320
MEAN_MOTION    = 14.61006090
ECCENTRICITY   = .00022428
INCLINATION    = 97.9608
RA_OF_ASC_NODE = 115.6244
ARG_OF_PERICENTER = 168.2978
MEAN_ANOMALY   = 236.4379

EPHEMERIS_TYPE = 0
CLASSIFICATION_TYPE = U
NORAD_CAT_ID   = 25994
ELEMENT_SET_NO = 999
REV_AT_EPOCH   = 39409
BSTAR          = .11721923E-3
MEAN_MOTION_DOT = .531E-5
MEAN_MOTION_DDOT = 0

CCSDS_OMM_VERS = 2.0
CREATION_DATE  = 
ORIGINATOR     = 

OBJECT_NAME    = SL-16 R/B
OBJECT_ID      = 2000-006B
CENTER_NAME    = EARTH
REF_FRAME      = TEME
TIME_SYSTEM    = UTC
MEAN_ELEMENT_THEORY = SGP/SGP4

EPOCH          = 2026-03-02T14:15:28.689984
MEAN_MOTION    = 14.15823865
ECCENTRICITY   = .0017251
INCLINATION    = 71.0013
RA_OF_ASC_NODE = 112.7581
ARG_OF_PERICENTER = 199.9346
MEAN_ANOMALY   = 160.1105

EPHEMERIS_TYPE = 0
CLASSIFICATION_TYPE = U
NORAD_CAT_ID   = 26070
ELEMENT_SET_NO = 999
REV_AT_EPOCH   = 34755
BSTAR          = .15675E-3
MEAN_MOTION_DOT = .261E-5
MEAN_MOTION_DDOT = 0

CCSDS_OMM_VERS = 2.0
CREATION_DATE  = 
ORIGINATOR     = 

OBJECT_NAME    = TITAN 4B R/B
OBJECT_ID      = 2000-047B
CENTER_NAME    = EARTH
REF_FRAME      = TEME
TIME_SYSTEM    = UTC
MEAN_ELEMENT_THEORY = SGP/SGP4

EPOCH          = 2026-03-02T22:30:48.553344
MEAN_MOTION    = 15.09482652
ECCENTRICITY   = .00379264
INCLINATION    = 67.9882
RA_OF_ASC_NODE = 59.4944
ARG_OF_PERICENTER = 43.4420
MEAN_ANOMALY   = 316.9706

EPHEMERIS_TYPE = 0
CLASSIFICATION_TYPE = U
NORAD_CAT_ID   = 26474
ELEMENT_SET_NO = 999
REV_AT_EPOCH   = 39189
BSTAR          = .30276522E-3
MEAN_MOTION_DOT = .481E-4
MEAN_MOTION_DDOT = 0

CCSDS_OMM_VERS = 2.0
CREATION_DATE  = 
ORIGINATOR     = 

OBJECT_NAME    = ENVISAT
OBJECT_ID      = 2002-009A
CENTER_NAME    = EARTH
REF_FRAME      = TEME
TIME_SYSTEM    = UTC
MEAN_ELEMENT_THEORY = SGP/SGP4

EPOCH          = 2026-03-02T20:36:28.375200
MEAN_MOTION    = 14.39033896
ECCENTRICITY   = .0001346
INCLINATION    = 98.3717
RA_OF_ASC_NODE = 15.6191
ARG_OF_PERICENTER = 84.9534
MEAN_ANOMALY   = 290.4970

EPHEMERIS_TYPE = 0
CLASSIFICATION_TYPE = U
NORAD_CAT_ID   = 27386
ELEMENT_SET_NO = 999
REV_AT_EPOCH   = 25819
BSTAR          = .64555552E-4
MEAN_MOTION_DOT = .157E-5
MEAN_MOTION_DDOT = 0

